#aV2006 12 14  0  0   .00000000      96 DD+AD WGS84 FIT  NGA
## 1405 345600.00000000   900.00000000 54083  .0000000000000
+   30     1  2  3  4  5  6  7  8  9 10 11 12 13 14 16 17 18
+         19 20 21 22 23 24 25 26 27 28 29 30 31  0  0  0  0
+          0  0  0  0  0  0  0  0  0  0  0  0  0  0  0  0  0
+          0  0  0  0  0  0  0  0  0  0  0  0  0  0  0  0  0
+          0  0  0  0  0  0  0  0  0  0  0  0  0  0  0  0  0
++         0  0  0  0  0  0  0  0  0  0  0  0  0  0  0  0  0
++         0  0  0  0  0  0  0  0  0  0  0  0  0  0  0  0  0
++         0  0  0  0  0  0  0  0  0  0  0  0  0  0  0  0  0
++         0  0  0  0  0  0  0  0  0  0  0  0  0  0  0  0  0
++         0  0  0  0  0  0  0  0  0  0  0  0  0  0  0  0  0
%c cc cc ccc ccc cccc cccc cccc cccc ccccc ccccc ccccc ccccc
%c cc cc ccc ccc cccc cccc cccc cccc ccccc ccccc ccccc ccccc
%f  0.0000000  0.000000000  0.00000000000  0.000000000000000
%f  0.0000000  0.000000000  0.00000000000  0.000000000000000
%i    0    0    0    0      0      0      0      0         0
%i    0    0    0    0      0      0      0      0         0
/*      NGA, ST. LOUIS,MO.                                  
/*   EPHEMERIS COMPUTED FROM  3 DAYS OF DATA                
/* CCCCCCCCCCCCCCCCCCCCCCCCCCCCCCCCCCCCCCCCCCCCCCCCCCCCCCCCC
/* CCCCCCCCCCCCCCCCCCCCCCCCCCCCCCCCCCCCCCCCCCCCCCCCCCCCCCCCC
*  2006 12 14 14 15   .00000000                                                 
P  1  14181.741879  -3053.617372 -22040.229465     95.356775                    
V  1   4691.896036  28022.313737   -917.465645       .020450                    
P  2 -22226.682196  10980.892702  -9427.292810     63.863887                    
V  2   6671.253615 -10118.989626 -28463.156695       .035431                    
P  3  14031.459690  -7858.665759  20911.151358    461.838449                    
V  3   8744.082264  25751.805326   4101.050130       .210976                    
P  4 -19258.613734   -842.377250 -18477.396393    346.128793                    
V  4  16591.997134 -16372.699179 -16233.797453       .034294                    
P  5  -4643.991491  15124.479853 -21559.876806    426.175950                    
V  5 -26163.327846  -6372.757357   1330.992200       .207041                    
P  6   6911.355028  25607.772252    750.749648    510.194597                    
V  6  -3445.457715   1616.112804 -31147.403769      -.179680                    
P  7  13154.124147  21073.210435   9605.126554    473.769278                    
V  7     -5.469683  12225.309223 -27915.415747      -.093055                    
P  8 -11693.557670  -9466.164194  21789.184850    -89.519091                    
V  8  21514.100736 -17757.260424   3385.336292      -.014630                    
P  9 -13906.831321  21215.689154  -8012.314742     48.791518                    
V  9  -8618.753551   4699.967402  29768.316244       .016392                    
P 10 -21726.611309   3246.157412  15055.578017     94.392123                    
V 10 -17511.082357  -7906.260369 -23098.275734       .005825                    
P 11  10152.392194 -22995.258814  -8223.705639      -.370526                    
V 11  10247.734771  -5246.369433  27912.088014       .015640                    
P 12  -5296.296014  14225.677401 -21691.483828    -86.558421                    
V 12 -26419.880024  -8623.166452    826.623944       .102291                    
P 13  -6521.853793 -25591.173174   2954.441799    122.315748                    
V 13   1030.066700  -4089.541252 -32145.090921       .037874                    
P 14  14293.258666  14348.023363 -17139.995094      1.625005                    
V 14   2937.329191  21673.555578  20423.893336       .010737                    
P 16  24102.261730   -169.317772  11371.838312    101.708791                    
V 16  12793.250475   6721.520133 -27080.064067       .039611                    
P 17 -14964.159302 -14174.563553 -16822.011791     86.283869                    
V 17  -2602.063774 -21217.839440  20089.474192      -.013478                    
P 18  14898.675279  16674.734224  14706.730042   -253.482588                    
V 18 -17856.200908  -4590.113439  23187.293321      -.002618                    
P 19   9658.309846 -17800.527464  17233.740288     44.753796                    
V 19   4932.467756  21252.318614  19381.168270       .042202                    
P 20   1794.813262 -15467.436292 -21608.710320    -21.813407                    
V 20  26081.611869   7884.250009  -3453.456765      -.000396                    
P 21   6532.038029  14654.499134  21190.873732     65.010765                    
V 21 -21119.291983  16595.831940  -5538.384075       .013514                    
P 22  23363.265368  12038.678429   4066.884925    155.820055                    
V 22  -5706.172890   1010.707874  31005.690684       .023096                    
P 23    554.788806 -25129.528951  -8354.040702    142.760035                    
V 23   4605.756946   9803.047020 -29649.092668       .010573                    
P 24 -22338.533694  13886.325931  -4618.293131     60.026993                    
V 24   3079.405041  -5826.786971 -30769.550716       .030677                    
P 25  20622.742376  -6731.683764 -15028.859828    403.559455                    
V 25 -11838.256251  15948.434584 -22623.775115      -.042955                    
P 26  -9030.498846  16562.975893  18032.413260    -47.234714                    
V 26  -5651.348765 -23259.773611  18679.016978      -.169658                    
P 27  -3638.874553 -16895.536846  20723.605425     83.123589                    
V 27  18258.131325 -17086.158027 -11350.891941       .020601                    
P 28 -21631.895995 -13620.365608   8159.502211     12.059485                    
V 28  10048.987319   1108.378404  29256.433933      -.007897                    
P 29 -11252.277916  12523.336490  20680.585521    260.503523                    
V 29  -6231.547137 -25014.992388  12205.462379       .227668                    
P 30   8500.615197  16785.067456 -19093.209503     19.410844                    
V 30 -23107.338554  -5121.548091 -14920.394648       .011722                    
P 31  20421.484036  -2845.411596 -16570.384345    -21.877663                    
V 31 -14621.476392  15732.856402 -20437.616733       .075534                    
EOF
